OBJECT_NAME,OBJECT_ID,EPOCH,MEAN_MOTION,ECCENTRICITY,INCLINATION,RA_OF_ASC_NODE,ARG_OF_PERICENTER,MEAN_ANOMALY,EPHEMERIS_TYPE,CLASSIFICATION_TYPE,NORAD_CAT_ID,ELEMENT_SET_NO,REV_AT_EPOCH,BSTAR,MEAN_MOTION_DOT,MEAN_MOTION_DDOT
PERSEUS-M1,2014-033AF,2026-05-20T08:06:06.518880,14.95528725,.0012615,97.9635,84.0171,36.5099,323.6979,0,U,40039,999,64647,.11057E-3,.1166E-4,0
POLYITAN-1,2014-033AJ,2026-05-20T12:03:06.946272,15.32197464,.0005828,98.0961,164.1663,232.7797,127.2911,0,U,40042,999,64935,.41541E-3,.12839E-3,0
TIGRISAT,2014-033AK,2026-05-20T08:33:19.512576,14.85027857,.0049869,97.7801,291.0142,164.4218,195.8546,0,U,40043,999,64149,.16415E-3,.1377E-4,0
AEROCUBE 6A,2014-033AM,2026-05-20T10:26:43.803744,14.97766990,.0040034,97.7225,307.6906,107.7764,252.7833,0,U,40045,999,64246,.28186E-3,.3302E-4,0
AEROCUBE 6B,2014-033AN,2026-05-20T04:44:17.541600,14.99188741,.00386597,97.7181,307.1864,101.8070,258.7493,0,U,40046,999,64256,.35662583E-3,.435E-4,0
CANX-4,2014-034C,2026-05-20T10:56:07.264032,14.81206483,.0014122,98.3156,14.7467,99.2570,261.0239,0,U,40055,999,64042,.78132E-4,.552E-5,0
CANX-5,2014-034D,2026-05-20T09:17:03.024384,14.81223480,.0014116,98.3159,14.7172,99.6483,260.6324,0,U,40056,999,63122,.78984E-4,.558E-5,0
UKUBE-1,2014-037F,2026-05-20T11:07:17.796288,15.13051801,.0000549,98.4245,140.8349,136.5898,223.5374,0,U,40074,999,64436,.31719E-3,.553E-4,0
BRITE-PL2 (HEWELIUSZ),2014-049B,2026-05-20T06:05:00.125088,14.94474539,.0013711,97.9068,252.0453,196.6097,163.4675,0,U,40119,999,63727,.14965E-3,.1557E-4,0
AEROCUBE 5C,2015-058B,2026-05-20T13:02:44.072160,14.91280988,.0129962,64.7680,348.5781,74.1449,287.3945,0,U,40965,999,36153,.18509E-3,.1992E-4,0
AEROCUBE 7,2015-058C,2026-05-20T13:14:07.127232,14.95491659,.0119731,64.7629,331.3624,72.7971,288.6208,0,U,40966,999,36182,.24003E-3,.2894E-4,0
FOX-1A (AO-85),2015-058D,2026-05-19T23:28:52.394016,14.90787539,.0129254,64.7763,6.6371,67.6636,293.8116,0,U,40967,999,10936,.19745E-3,.2104E-4,0
SINOD-D 1,2015-058E,2026-05-20T12:47:07.052928,14.95670021,.0117781,64.7759,345.5012,64.1879,297.1329,0,U,40968,999,11252,.23993E-3,.2894E-4,0
SNAP-3 ALICE,2015-058G,2026-05-20T10:12:05.811264,15.54234068,.0033417,64.7513,199.4382,26.1966,334.0858,0,U,40970,999,11256,.89991E-3,.6072E-3,0
LMRST-SAT,2015-058H,2026-05-20T01:27:29.869632,14.90413776,.01310125,64.7769,2.6661,69.6512,291.8619,0,U,40971,999,10936,.19854727E-3,.2104E-4,0
SNAP-3 EDDIE,2015-058J,2026-05-20T12:00:57.494016,15.55397410,.0033677,64.7431,190.1031,29.9318,330.3742,0,U,40972,999,11471,.80605E-3,.56747E-3,0
PROPCUBE 3,2015-058K,2026-05-20T03:57:44.309088,14.94049414,.01231267,64.7690,340.0744,71.0923,290.3491,0,U,40973,999,11061,.21588624E-3,.2502E-4,0
BISONSAT,2015-058L,2026-05-20T07:47:45.165120,15.15577978,.0078534,64.7601,263.6784,59.0350,301.8460,0,U,40974,999,11139,.38878E-3,.7811E-4,0
SNAP-3 JIMI,2015-058M,2026-05-20T10:15:21.960000,15.01990881,.010514,64.7654,307.5824,66.9045,294.3113,0,U,40975,999,11005,.28502E-3,.4032E-4,0
PROPCUBE 1 (FLORA),2015-058N,2026-05-20T09:25:36.780384,14.89046379,.0129815,64.7759,21.3678,71.8017,289.7176,0,U,40976,999,11212,.19459E-3,.1975E-4,0
SINOD-D 3,2015-058P,2026-05-20T07:49:18.109056,14.93781969,.0118288,64.7734,2.8072,69.2762,292.0982,0,U,40977,999,11059,.24425E-3,.2801E-4,0
HORYU-4,2016-012D,2026-05-20T12:21:57.642336,15.80155358,.0004177,30.9886,279.6091,88.1764,271.9372,0,U,41340,999,56641,.74679E-3,.148657E-2,0
RAVAN,2016-067B,2026-05-20T09:45:18.347040,15.51887222,.0007155,97.9925,26.8286,100.3316,259.8742,0,U,41849,999,52338,.59387E-3,.35621E-3,0
CELTEE 1,2016-067C,2026-05-20T03:42:29.223360,15.19373973,.00014392,98.0704,4.8110,56.1866,303.9504,0,U,41850,999,52162,.17225425E-3,.3565E-4,0
OPTICUBE 04,2016-067D,2026-05-20T08:56:08.985408,15.09526912,.0014944,98.0725,351.2034,207.3108,152.7335,0,U,41851,999,52097,.81897E-4,.1244E-4,0
AEROCUBE 8D,2016-067E,2026-05-20T09:15:06.623712,15.23962793,.0002442,98.0712,8.4460,207.2452,152.8655,0,U,41852,999,52183,.22231E-3,.5297E-4,0
AEROCUBE 8C,2016-067F,2026-05-20T13:06:34.164864,15.24204547,.0006143,98.0584,5.8826,143.7196,216.4457,0,U,41853,999,52185,.21418E-3,.514E-4,0
CORVUS BC2,2017-042X,2026-05-20T10:12:23.615712,15.06093182,.0012557,97.4041,302.8632,200.2357,159.8374,0,U,42846,999,48288,.10511E-3,.1479E-4,0
CORVUS BC1,2017-042Y,2026-05-20T10:09:10.603296,15.06263627,.0012041,97.4071,303.6568,176.2354,183.8966,0,U,42847,999,48291,.10981E-3,.1554E-4,0
MAKERSAT 0,2017-073D,2026-05-20T05:10:47.770752,15.30827686,.0110314,97.4657,22.5369,13.6755,346.7432,0,U,43016,999,46218,.53752E-3,.19291E-3,0
